GLOBALSTAR M069         
1 31573U 07020C   26161.03026093 -.00000101  00000+0 -76391-4 0  9990
2 31573  52.0040 272.3835 0002483 133.2602  53.3068 12.23470926877920
GLOBALSTAR M072         
1 31574U 07020D   26161.16489834 -.00000075  00000+0  12865-3 0  9995
2 31574  51.9914 118.9400 0001395 312.2972  73.2906 11.91658476874147
GLOBALSTAR M066         
1 32265U 07048C   26161.08364988 -.00000136  00000+0 -35320-3 0  9996
2 32265  51.9594  78.3037 0005366  28.9666   5.6714 12.30388405859355
GLOBALSTAR M079         
1 37188U 10054A   26161.23754715 -.00000088  00000+0  86859-4 0  9993
2 37188  52.0020 129.8248 0000549   6.0342  11.0944 12.62266030721675
GLOBALSTAR M074         
1 37189U 10054B   26161.18607308 -.00000098  00000+0  31879-4 0  9996
2 37189  51.9997 129.2475 0000393  46.2422 337.0384 12.62268415722270
GLOBALSTAR M076         
1 37190U 10054C   26161.21382174 -.00000113  00000+0 -52993-4 0  9992
2 37190  52.0016 129.3656 0000580  33.5730 356.1046 12.62261820721995
GLOBALSTAR M077         
1 37191U 10054D   26160.87636088 -.00000069  00000+0  16829-3 0  9996
2 37191  51.9929 197.8529 0002850 159.4091  31.8603 11.67547608720288
GLOBALSTAR M075         
1 37192U 10054E   26161.30492867 -.00000086  00000+0  98239-4 0  9996
2 37192  51.9920 171.1481 0000021  99.4566 284.1781 12.62267371721070
GLOBALSTAR M073         
1 37193U 10054F   26161.06769433 -.00000109  00000+0 -27356-4 0  9995
2 37193  52.0062  85.9636 0000784  34.0872 349.6306 12.62262122723032
GLOBALSTAR M083         
1 37739U 11033A   26160.92160757 -.00000102  00000+0  11283-4 0  9991
2 37739  51.9872  34.6471 0000850  56.6762 324.2987 12.62262934692035
GLOBALSTAR M088         
1 37740U 11033B   26160.65740733 -.00000095  00000+0  49418-4 0  9993
2 37740  52.0228 301.8628 0000827 115.3216 262.7505 12.62268589687542
GLOBALSTAR M091         
1 37741U 11033C   26161.02086933 -.00000099  00000+0  28373-4 0  9992
2 37741  52.0003 263.7329 0000462 139.8113  31.7614 12.62263778688372
GLOBALSTAR M085         
1 37742U 11033D   26160.93178155 -.00000092  00000+0  64512-4 0  9998
2 37742  52.0109 215.2899 0000167 194.5334 352.1096 12.62263950688870
GLOBALSTAR M081         
1 37743U 11033E   26160.87724887 -.00000093  00000+0  61582-4 0  9996
2 37743  51.9939 217.9004 0000207 128.2785  50.0314 12.62264835689013
GLOBALSTAR M089         
1 37744U 11033F   26161.27760397 -.00000074  00000+0  16587-3 0  9991
2 37744  51.9904 170.8409 0000353  99.5406 279.7426 12.62267115689911
GLOBALSTAR M084         
1 38040U 11080A   26160.97755547 -.00000104  00000+0 -16010-5 0  9998
2 38040  52.0027  39.2308 0001046  74.5742 320.5237 12.62267500667853
GLOBALSTAR M080         
1 38041U 11080B   26160.94651650 -.00000105  00000+0 -43064-5 0  9996
2 38041  52.0077  41.0408 0000307  68.8144 315.1721 12.62269267667975
GLOBALSTAR M082         
1 38042U 11080C   26160.84092593 -.00000089  00000+0  80473-4 0  9995
2 38042  52.0097 356.8622 0000540  89.0614 105.0212 12.62269936668660
GLOBALSTAR M092         
1 38043U 11080D   26161.09526661 -.00000101  00000+0  16386-4 0  9999
2 38043  52.0086  86.4842 0000575  53.7840 335.5946 12.62266908667159
GLOBALSTAR M090         
1 38044U 11080E   26161.26014729 -.00000093  00000+0  60208-4 0  9998
2 38044  52.0144 349.5401 0000804  82.2816  96.6628 12.62269008668836
GLOBALSTAR M086         
1 38045U 11080F   26161.28352972 -.00000083  00000+0  11429-3 0  9995
2 38045  51.9914 349.4101 0001642  55.6109 130.1551 12.62286631668780
GLOBALSTAR M097         
1 39072U 13005A   26161.03620632 -.00000099  00000+0  24991-4 0  9995
2 39072  52.0053 265.1044 0000429 123.8126 236.2782 12.62247180616004
GLOBALSTAR M093         
1 39073U 13005B   26161.00952547 -.00000097  00000+0  36936-4 0  9996
2 39073  52.0108 258.5299 0000296 106.2706 253.8194 12.62265761615955
GLOBALSTAR M094         
1 39074U 13005C   26161.16780984 -.00000085  00000+0  10229-3 0  9991
2 39074  51.9929 172.1713 0000229 341.1604  18.9254 12.62268571617580
GLOBALSTAR M096         
1 39075U 13005D   26160.86453088 -.00000093  00000+0  62447-4 0  9999
2 39075  52.0058 221.8915 0000159 167.4562 192.6309 12.62265425616468
GLOBALSTAR M078         
1 39076U 13005E   26161.07506398 -.00000179  00000+0 -42109-3 0  9995
2 39076  51.9890 305.2681 0000569 201.7083 158.3760 12.62258769615117
GLOBALSTAR M095         
1 39077U 13005F   26161.10183536 -.00000103  00000+0  41454-5 0  9995
2 39077  52.0095 302.7809 0000362 122.7161 237.3741 12.62263343614975
GLOBALSTAR M087         
1 52888U 22064A   26161.03592452 -.00000101  00000+0  16800-4 0  9992
2 52888  51.9998  84.2235 0000612  22.9964 337.0930 12.62268960190231
